sat01931
1 01931U 65072E   20046.50874261  .00000101  00000-0  44344-4 0  9994
2 01931  98.8615 334.4054 0254425 340.1152  19.0249 14.28810258861968
